# From MPEC 2020-C98
390P/Gibbs,e,18.5591,152.2811,232.3363,5.797288,0.0706101,0.70679696,358.0776,02/24.0/2020,2000,g 12.0,4.0
# From MPEC 2020-AA5
391P/Kowalski,e,21.2760,124.7340,186.5527,4.674643,0.0975172,0.12078619,69.0489,02/24.0/2020,2000,g  8.0,4.0
# From MPEC 2020-C98
392P/LINEAR,e,4.9294,24.8888,71.9963,6.150429,0.0646169,0.68291068,357.6189,02/24.0/2020,2000,g 14.5,4.0
# From MPC118845
393P/Spacewatch-Hill,e,16.7975,36.4207,327.9652,4.782202,0.0942458,0.11995333,11.6504,02/24.0/2020,2000,g 11.0,4.0
# From MPC107687
1I/`Oumuamua,h,09/09.4886/2017,122.6778,24.5997,241.6845,1.199252,0.255240,2000,23.0,2.0
# From MPEC 2020-C98
2I/Borisov,h,12/08.5547/2019,44.0527,308.1482,209.1252,3.356773,2.006564,2000,11.0,4.0
